[{"OBJECT_NAME":"FLOCK 4Y-6","OBJECT_ID":"2023-001BK","EPOCH":"2024-01-22T17:41:24.843840","MEAN_MOTION":15.23794569,"ECCENTRICITY":0.0011561,"INCLINATION":97.4533,"RA_OF_ASC_NODE":85.7032,"ARG_OF_PERICENTER":331.718,"MEAN_ANOMALY":28.3428,"EPHEMERIS_TYPE":0,"CLASSIFICATION_TYPE":"U","NORAD_CAT_ID":55066,"ELEMENT_SET_NO":999,"REV_AT_EPOCH":5845,"BSTAR":0.00067439,"MEAN_MOTION_DOT":0.00016214,"MEAN_MOTION_DDOT":0},{"OBJECT_NAME":"NSL-2","OBJECT_ID":"2023-001BL","EPOCH":"2024-01-22T17:06:03.233952","MEAN_MOTION":15.36112391,"ECCENTRICITY":0.0009526,"INCLINATION":97.4502,"RA_OF_ASC_NODE":88.381,"ARG_OF_PERICENTER":316.4025,"MEAN_ANOMALY":43.6465,"EPHEMERIS_TYPE":0,"CLASSIFICATION_TYPE":"U","NORAD_CAT_ID":55067,"ELEMENT_SET_NO":999,"REV_AT_EPOCH":5862,"BSTAR":0.0012228,"MEAN_MOTION_DOT":0.00043185,"MEAN_MOTION_DDOT":0},{"OBJECT_NAME":"FLOCK 4Y-15","OBJECT_ID":"2023-001BM","EPOCH":"2024-01-22T17:42:13.807584","MEAN_MOTION":15.23565377,"ECCENTRICITY":0.0012505,"INCLINATION":97.4466,"RA_OF_ASC_NODE":85.4303,"ARG_OF_PERICENTER":325.9866,"MEAN_ANOMALY":34.0568,"EPHEMERIS_TYPE":0,"CLASSIFICATION_TYPE":"U","NORAD_CAT_ID":55068,"ELEMENT_SET_NO":999,"REV_AT_EPOCH":5845,"BSTAR":0.00063397,"MEAN_MOTION_DOT":0.00015137,"MEAN_MOTION_DDOT":0},{"OBJECT_NAME":"FLOCK 4Y-9","OBJECT_ID":"2023-001BN","EPOCH":"2024-01-22T05:26:47.706720","MEAN_MOTION":15.23391256,"ECCENTRICITY":0.0012121,"INCLINATION":97.4521,"RA_OF_ASC_NODE":85.1002,"ARG_OF_PERICENTER":337.0424,"MEAN_ANOMALY":23.0269,"EPHEMERIS_TYPE":0,"CLASSIFICATION_TYPE":"U","NORAD_CAT_ID":55069,"ELEMENT_SET_NO":999,"REV_AT_EPOCH":5837,"BSTAR":0.00056761,"MEAN_MOTION_DOT":0.0001347,"MEAN_MOTION_DDOT":0},{"OBJECT_NAME":"FLOCK 4Y-26","OBJECT_ID":"2023-001BP","EPOCH":"2024-01-22T17:30:45.614304","MEAN_MOTION":15.23677066,"ECCENTRICITY":0.001243,"INCLINATION":97.4506,"RA_OF_ASC_NODE":85.5016,"ARG_OF_PERICENTER":324.623,"MEAN_ANOMALY":35.4181,"EPHEMERIS_TYPE":0,"CLASSIFICATION_TYPE":"U","NORAD_CAT_ID":55070,"ELEMENT_SET_NO":999,"REV_AT_EPOCH":5845,"BSTAR":0.00068433,"MEAN_MOTION_DOT":0.00016401,"MEAN_MOTION_DDOT":0},{"OBJECT_NAME":"FLOCK 4Y-8","OBJECT_ID":"2023-001BQ","EPOCH":"2024-01-22T05:25:35.033088","MEAN_MOTION":15.24224976,"ECCENTRICITY":0.0012465,"INCLINATION":97.4497,"RA_OF_ASC_NODE":85.1282,"ARG_OF_PERICENTER":330.9173,"MEAN_ANOMALY":29.1369,"EPHEMERIS_TYPE":0,"CLASSIFICATION_TYPE":"U","NORAD_CAT_ID":55071,"ELEMENT_SET_NO":999,"REV_AT_EPOCH":5838,"BSTAR":0.00066106,"MEAN_MOTION_DOT":0.00016101,"MEAN_MOTION_DDOT":0},{"OBJECT_NAME":"SPHERE-1 EYE","OBJECT_ID":"2023-001BR","EPOCH":"2024-01-22T18:14:10.141440","MEAN_MOTION":15.24314463,"ECCENTRICITY":0.0011756,"INCLINATION":97.454,"RA_OF_ASC_NODE":85.5844,"ARG_OF_PERICENTER":330.2038,"MEAN_ANOMALY":29.8528,"EPHEMERIS_TYPE":0,"CLASSIFICATION_TYPE":"U","NORAD_CAT_ID":55072,"ELEMENT_SET_NO":999,"REV_AT_EPOCH":5844,"BSTAR":0.00081552,"MEAN_MOTION_DOT":0.00019939,"MEAN_MOTION_DDOT":0},{"OBJECT_NAME":"TAUSAT-2","OBJECT_ID":"2023-001BS","EPOCH":"2024-01-22T17:19:21.734112","MEAN_MOTION":15.2498506,"ECCENTRICITY":0.0012733,"INCLINATION":97.4497,"RA_OF_ASC_NODE":85.7691,"ARG_OF_PERICENTER":306.3436,"MEAN_ANOMALY":53.6625,"EPHEMERIS_TYPE":0,"CLASSIFICATION_TYPE":"U","NORAD_CAT_ID":55073,"ELEMENT_SET_NO":999,"REV_AT_EPOCH":5846,"BSTAR":0.00082455,"MEAN_MOTION_DOT":0.00020577,"MEAN_MOTION_DDOT":0},{"OBJECT_NAME":"FLOCK 4Y-2","OBJECT_ID":"2023-001BT","EPOCH":"2024-01-22T18:08:53.851776","MEAN_MOTION":15.23433694,"ECCENTRICITY":0.0012432,"INCLINATION":97.4514,"RA_OF_ASC_NODE":85.6315,"ARG_OF_PERICENTER":332.4931,"MEAN_ANOMALY":27.5646,"EPHEMERIS_TYPE":0,"CLASSIFICATION_TYPE":"U","NORAD_CAT_ID":55074,"ELEMENT_SET_NO":999,"REV_AT_EPOCH":5845,"BSTAR":0.00063402,"MEAN_MOTION_DOT":0.00015078,"MEAN_MOTION_DDOT":0},{"OBJECT_NAME":"FLOCK 4Y-31","OBJECT_ID":"2023-001BU","EPOCH":"2024-01-22T05:28:12.605952","MEAN_MOTION":15.30817767,"ECCENTRICITY":0.0011402,"INCLINATION":97.4458,"RA_OF_ASC_NODE":85.9591,"ARG_OF_PERICENTER":320.3277,"MEAN_ANOMALY":39.7128,"EPHEMERIS_TYPE":0,"CLASSIFICATION_TYPE":"U","NORAD_CAT_ID":55075,"ELEMENT_SET_NO":999,"REV_AT_EPOCH":5844,"BSTAR":0.0012233,"MEAN_MOTION_DOT":0.00036559,"MEAN_MOTION_DDOT":0},{"OBJECT_NAME":"YAM-5","OBJECT_ID":"2023-001BV","EPOCH":"2024-01-22T17:07:20.402112","MEAN_MOTION":15.17344174,"ECCENTRICITY":0.001312,"INCLINATION":97.4504,"RA_OF_ASC_NODE":83.4907,"ARG_OF_PERICENTER":336.9591,"MEAN_ANOMALY":23.1052,"EPHEMERIS_TYPE":0,"CLASSIFICATION_TYPE":"U","NORAD_CAT_ID":55076,"ELEMENT_SET_NO":999,"REV_AT_EPOCH":5831,"BSTAR":0.0003667,"MEAN_MOTION_DOT":7.267e-5,"MEAN_MOTION_DDOT":0},{"OBJECT_NAME":"FLOCK 4Y-21","OBJECT_ID":"2023-001BW","EPOCH":"2024-01-22T03:38:05.174592","MEAN_MOTION":15.23578123,"ECCENTRICITY":0.0012523,"INCLINATION":97.4521,"RA_OF_ASC_NODE":85.096,"ARG_OF_PERICENTER":333.2661,"MEAN_ANOMALY":26.7929,"EPHEMERIS_TYPE":0,"CLASSIFICATION_TYPE":"U","NORAD_CAT_ID":55077,"ELEMENT_SET_NO":999,"REV_AT_EPOCH":5836,"BSTAR":0.00065075,"MEAN_MOTION_DOT":0.00015546,"MEAN_MOTION_DDOT":0},{"OBJECT_NAME":"FLOCK 4Y-36","OBJECT_ID":"2023-001BX","EPOCH":"2024-01-22T02:50:23.730144","MEAN_MOTION":15.23911001,"ECCENTRICITY":0.0012416,"INCLINATION":97.4499,"RA_OF_ASC_NODE":85.0032,"ARG_OF_PERICENTER":332.6956,"MEAN_ANOMALY":27.3627,"EPHEMERIS_TYPE":0,"CLASSIFICATION_TYPE":"U","NORAD_CAT_ID":55078,"ELEMENT_SET_NO":999,"REV_AT_EPOCH":5836,"BSTAR":0.00067094,"MEAN_MOTION_DOT":0.00016191,"MEAN_MOTION_DDOT":0},{"OBJECT_NAME":"FLOCK 4Y-13","OBJECT_ID":"2023-001BY","EPOCH":"2024-01-22T14:56:12.220224","MEAN_MOTION":15.23456588,"ECCENTRICITY":0.0012737,"INCLINATION":97.451,"RA_OF_ASC_NODE":85.489,"ARG_OF_PERICENTER":330.8277,"MEAN_ANOMALY":29.2247,"EPHEMERIS_TYPE":0,"CLASSIFICATION_TYPE":"U","NORAD_CAT_ID":55079,"ELEMENT_SET_NO":999,"REV_AT_EPOCH":5843,"BSTAR":0.00060735,"MEAN_MOTION_DOT":0.00014451,"MEAN_MOTION_DDOT":0},{"OBJECT_NAME":"FLOCK 4Y-23","OBJECT_ID":"2023-001BZ","EPOCH":"2024-01-22T04:16:27.840864","MEAN_MOTION":15.24103866,"ECCENTRICITY":0.0013218,"INCLINATION":97.4493,"RA_OF_ASC_NODE":85.0346,"ARG_OF_PERICENTER":330.3167,"MEAN_ANOMALY":29.7319,"EPHEMERIS_TYPE":0,"CLASSIFICATION_TYPE":"U","NORAD_CAT_ID":55080,"ELEMENT_SET_NO":999,"REV_AT_EPOCH":5837,"BSTAR":0.00070021,"MEAN_MOTION_DOT":0.00017004,"MEAN_MOTION_DDOT":0},{"OBJECT_NAME":"FLOCK 4Y-34","OBJECT_ID":"2023-001CB","EPOCH":"2024-01-22T03:08:46.031712","MEAN_MOTION":15.2351994,"ECCENTRICITY":0.0012637,"INCLINATION":97.4495,"RA_OF_ASC_NODE":84.9812,"ARG_OF_PERICENTER":327.7377,"MEAN_ANOMALY":32.3086,"EPHEMERIS_TYPE":0,"CLASSIFICATION_TYPE":"U","NORAD_CAT_ID":55082,"ELEMENT_SET_NO":999,"REV_AT_EPOCH":5836,"BSTAR":0.00063148,"MEAN_MOTION_DOT":0.00015057,"MEAN_MOTION_DDOT":0},{"OBJECT_NAME":"FLOCK 4Y-27","OBJECT_ID":"2023-001CC","EPOCH":"2024-01-22T17:19:23.750688","MEAN_MOTION":15.24220471,"ECCENTRICITY":0.0013161,"INCLINATION":97.4503,"RA_OF_ASC_NODE":85.7261,"ARG_OF_PERICENTER":326.8424,"MEAN_ANOMALY":33.1987,"EPHEMERIS_TYPE":0,"CLASSIFICATION_TYPE":"U","NORAD_CAT_ID":55083,"ELEMENT_SET_NO":999,"REV_AT_EPOCH":5846,"BSTAR":0.00074347,"MEAN_MOTION_DOT":0.00018125,"MEAN_MOTION_DDOT":0},{"OBJECT_NAME":"GAMA-ALPHA","OBJECT_ID":"2023-001CD","EPOCH":"2024-01-22T03:17:25.744992","MEAN_MOTION":15.21152488,"ECCENTRICITY":0.0012657,"INCLINATION":97.4486,"RA_OF_ASC_NODE":83.9791,"ARG_OF_PERICENTER":325.1515,"MEAN_ANOMALY":34.889,"EPHEMERIS_TYPE":0,"CLASSIFICATION_TYPE":"U","NORAD_CAT_ID":55084,"ELEMENT_SET_NO":999,"REV_AT_EPOCH":5830,"BSTAR":0.00051574,"MEAN_MOTION_DOT":0.0001145,"MEAN_MOTION_DDOT":0},{"OBJECT_NAME":"KSF3-D","OBJECT_ID":"2023-001CE","EPOCH":"2024-01-22T18:15:43.200288","MEAN_MOTION":15.23282656,"ECCENTRICITY":0.0012186,"INCLINATION":97.4484,"RA_OF_ASC_NODE":85.3149,"ARG_OF_PERICENTER":321.3873,"MEAN_ANOMALY":38.6491,"EPHEMERIS_TYPE":0,"CLASSIFICATION_TYPE":"U","NORAD_CAT_ID":55085,"ELEMENT_SET_NO":999,"REV_AT_EPOCH":5844,"BSTAR":0.00078271,"MEAN_MOTION_DOT":0.00018555,"MEAN_MOTION_DDOT":0},{"OBJECT_NAME":"KSF3-A","OBJECT_ID":"2023-001CF","EPOCH":"2024-01-22T18:13:55.164000","MEAN_MOTION":15.23302735,"ECCENTRICITY":0.0012434,"INCLINATION":97.4519,"RA_OF_ASC_NODE":85.4612,"ARG_OF_PERICENTER":326.8773,"MEAN_ANOMALY":33.1684,"EPHEMERIS_TYPE":0,"CLASSIFICATION_TYPE":"U","NORAD_CAT_ID":55086,"ELEMENT_SET_NO":999,"REV_AT_EPOCH":5844,"BSTAR":0.0013812,"MEAN_MOTION_DOT":0.00032883,"MEAN_MOTION_DDOT":0},{"OBJECT_NAME":"SPACEBEE-167","OBJECT_ID":"2023-001CG","EPOCH":"2024-01-22T03:04:09.070464","MEAN_MOTION":15.30158632,"ECCENTRICITY":0.001107,"INCLINATION":97.447,"RA_OF_ASC_NODE":86.1501,"ARG_OF_PERICENTER":320.0268,"MEAN_ANOMALY":40.0156,"EPHEMERIS_TYPE":0,"CLASSIFICATION_TYPE":"U","NORAD_CAT_ID":55087,"ELEMENT_SET_NO":999,"REV_AT_EPOCH":5844,"BSTAR":0.0011915,"MEAN_MOTION_DOT":0.00034877,"MEAN_MOTION_DDOT":0},{"OBJECT_NAME":"LEMUR-2-FUENTETAJA-01","OBJECT_ID":"2023-001CH","EPOCH":"2024-01-22T17:11:40.739136","MEAN_MOTION":15.32747572,"ECCENTRICITY":0.0009578,"INCLINATION":97.4559,"RA_OF_ASC_NODE":87.8504,"ARG_OF_PERICENTER":311.1888,"MEAN_ANOMALY":48.8527,"EPHEMERIS_TYPE":0,"CLASSIFICATION_TYPE":"U","NORAD_CAT_ID":55088,"ELEMENT_SET_NO":999,"REV_AT_EPOCH":5858,"BSTAR":0.00053306,"MEAN_MOTION_DOT":0.0001682,"MEAN_MOTION_DDOT":0},{"OBJECT_NAME":"SPACEBEE-163","OBJECT_ID":"2023-001CJ","EPOCH":"2024-01-22T03:44:15.593856","MEAN_MOTION":15.33123843,"ECCENTRICITY":0.0010403,"INCLINATION":97.4432,"RA_OF_ASC_NODE":86.6687,"ARG_OF_PERICENTER":317.665,"MEAN_ANOMALY":42.3788,"EPHEMERIS_TYPE":0,"CLASSIFICATION_TYPE":"U","NORAD_CAT_ID":55089,"ELEMENT_SET_NO":999,"REV_AT_EPOCH":5848,"BSTAR":0.0014381,"MEAN_MOTION_DOT":0.00046241,"MEAN_MOTION_DDOT":0},{"OBJECT_NAME":"SPACEBEE-164","OBJECT_ID":"2023-001CL","EPOCH":"2024-01-22T03:41:27.358368","MEAN_MOTION":15.31160432,"ECCENTRICITY":0.0010987,"INCLINATION":97.4462,"RA_OF_ASC_NODE":86.4041,"ARG_OF_PERICENTER":318.493,"MEAN_ANOMALY":41.5476,"EPHEMERIS_TYPE":0,"CLASSIFICATION_TYPE":"U","NORAD_CAT_ID":55091,"ELEMENT_SET_NO":999,"REV_AT_EPOCH":5846,"BSTAR":0.0012256,"MEAN_MOTION_DOT":0.00037016,"MEAN_MOTION_DDOT":0}]
